{
  "type": "FeatureCollection",
  "features": [
    {
      "type": "Feature",
      "properties": {
        "norad_id": 28054,
        "name": "DMSP 5D-3 F16 (USA 172)",
        "group": "weather",
        "lat": -38.337794124243956,
        "lon": 173.20544286760168,
        "alt_km": 852.5848200139535,
        "timestamp": "2025-12-08T23:34:03.612114+00:00",
        "meta_object_name": "DMSP 5D-3 F16 (USA 172)",
        "meta_object_id": "2003-048A",
        "meta_epoch": "2025-12-08T14:33:50.397120",
        "meta_mean_motion": 14.14422177,
        "meta_eccentricity": 0.00066574,
        "meta_inclination": 99.0048,
        "meta_ra_of_asc_node": 0.0313,
        "meta_arg_of_pericenter": 333.6844,
        "meta_mean_anomaly": 136.0069,
        "meta_ephemeris_type": 0,
        "meta_classification_type": "U",
        "meta_norad_cat_id": 28054,
        "meta_element_set_no": 999,
        "meta_rev_at_epoch": 14254,
        "meta_bstar": 0.00016073135,
        "meta_mean_motion_dot": 2.62e-06,
        "meta_mean_motion_ddot": 0,
        "tle_line1": "1 28054U 03048A   25342.60683330  .00000262  00000+0  16073-3 0  9998",
        "tle_line2": "2 28054  99.0048   0.0313 0006657 333.6844 136.0069 14.14422177142547"
      },
      "geometry": {
        "type": "Point",
        "coordinates": [
          173.20544286760168,
          -38.337794124243956
        ]
      }
    },
    {
      "type": "Feature",
      "properties": {
        "norad_id": 28912,
        "name": "METEOSAT-9 (MSG-2)",
        "group": "weather",
        "lat": 7.826738173738084,
        "lon": 116.79261015729018,
        "alt_km": 35794.69360558238,
        "timestamp": "2025-12-08T23:34:03.612183+00:00",
        "meta_object_name": "METEOSAT-9 (MSG-2)",
        "meta_object_id": "2005-049B",
        "meta_epoch": "2025-12-07T20:41:55.425120",
        "meta_mean_motion": 1.00273689,
        "meta_eccentricity": 0.00039018,
        "meta_inclination": 8.9285,
        "meta_ra_of_asc_node": 56.0211,
        "meta_arg_of_pericenter": 189.463,
        "meta_mean_anomaly": 187.4925,
        "meta_ephemeris_type": 0,
        "meta_classification_type": "U",
        "meta_norad_cat_id": 28912,
        "meta_element_set_no": 999,
        "meta_rev_at_epoch": 508,
        "meta_bstar": 0,
        "meta_mean_motion_dot": 1.24e-06,
        "meta_mean_motion_ddot": 0,
        "tle_line1": "1 28912U 05049B   25341.86244705  .00000124  00000+0  00000+0 0  9996",
        "tle_line2": "2 28912   8.9285  56.0211 0003901 189.4630 187.4925  1.00273689  5080"
      },
      "geometry": {
        "type": "Point",
        "coordinates": [
          116.79261015729018,
          7.826738173738084
        ]
      }
    },
    {
      "type": "Feature",
      "properties": {
        "norad_id": 29522,
        "name": "DMSP 5D-3 F17 (USA 191)",
        "group": "weather",
        "lat": 27.008082455290353,
        "lon": 172.94613136550973,
        "alt_km": 840.7686167328175,
        "timestamp": "2025-12-08T23:34:03.612200+00:00",
        "meta_object_name": "DMSP 5D-3 F17 (USA 191)",
        "meta_object_id": "2006-050A",
        "meta_epoch": "2025-12-08T14:21:44.354592",
        "meta_mean_motion": 14.14917086,
        "meta_eccentricity": 0.00092683,
        "meta_inclination": 98.7393,
        "meta_ra_of_asc_node": 348.0738,
        "meta_arg_of_pericenter": 237.6389,
        "meta_mean_anomaly": 122.3888,
        "meta_ephemeris_type": 0,
        "meta_classification_type": "U",
        "meta_norad_cat_id": 29522,
        "meta_element_set_no": 999,
        "meta_rev_at_epoch": 98546,
        "meta_bstar": 0.0001865617,
        "meta_mean_motion_dot": 3.17e-06,
        "meta_mean_motion_ddot": 0,
        "tle_line1": "1 29522U 06050A   25342.59843003  .00000317  00000+0  18656-3 0  9998",
        "tle_line2": "2 29522  98.7393 348.0738 0009268 237.6389 122.3888 14.14917086985462"
      },
      "geometry": {
        "type": "Point",
        "coordinates": [
          172.94613136550973,
          27.008082455290353
        ]
      }
    },
    {
      "type": "Feature",
      "properties": {
        "norad_id": 32958,
        "name": "FENGYUN 3A",
        "group": "weather",
        "lat": 15.138191190221152,
        "lon": 104.95352945941757,
        "alt_km": 833.1491240392743,
        "timestamp": "2025-12-08T23:34:03.612214+00:00",
        "meta_object_name": "FENGYUN 3A",
        "meta_object_id": "2008-026A",
        "meta_epoch": "2025-12-08T14:20:09.902112",
        "meta_mean_motion": 14.19512702,
        "meta_eccentricity": 0.00080907,
        "meta_inclination": 98.6692,
        "meta_ra_of_asc_node": 282.2115,
        "meta_arg_of_pericenter": 323.4292,
        "meta_mean_anomaly": 36.6331,
        "meta_ephemeris_type": 0,
        "meta_classification_type": "U",
        "meta_norad_cat_id": 32958,
        "meta_element_set_no": 999,
        "meta_rev_at_epoch": 90836,
        "meta_bstar": 0.0001449676,
        "meta_mean_motion_dot": 2.62e-06,
        "meta_mean_motion_ddot": 0,
        "tle_line1": "1 32958U 08026A   25342.59733683  .00000262  00000+0  14497-3 0  9990",
        "tle_line2": "2 32958  98.6692 282.2115 0008090 323.4292  36.6331 14.19512702908362"
      },
      "geometry": {
        "type": "Point",
        "coordinates": [
          104.95352945941757,
          15.138191190221152
        ]
      }
    },
    {
      "type": "Feature",
      "properties": {
        "norad_id": 35491,
        "name": "GOES 14",
        "group": "weather",
        "lat": -1.0142568929351619,
        "lon": -36.76894222379619,
        "alt_km": 35783.79173855798,
        "timestamp": "2025-12-08T23:34:03.612229+00:00",
        "meta_object_name": "GOES 14",
        "meta_object_id": "2009-033A",
        "meta_epoch": "2025-12-08T12:17:06.800064",
        "meta_mean_motion": 1.00273082,
        "meta_eccentricity": 0.00040878,
        "meta_inclination": 1.1883,
        "meta_ra_of_asc_node": 85.4533,
        "meta_arg_of_pericenter": 154.4178,
        "meta_mean_anomaly": 273.6185,
        "meta_ephemeris_type": 0,
        "meta_classification_type": "U",
        "meta_norad_cat_id": 35491,
        "meta_element_set_no": 999,
        "meta_rev_at_epoch": 468,
        "meta_bstar": 0,
        "meta_mean_motion_dot": -6.6e-07,
        "meta_mean_motion_ddot": 0,
        "tle_line1": "1 35491U 09033A   25342.51188426 -.00000066  00000+0  00000+0 0  9999",
        "tle_line2": "2 35491   1.1883  85.4533 0004087 154.4178 273.6185  1.00273082  4685"
      },
      "geometry": {
        "type": "Point",
        "coordinates": [
          -36.76894222379619,
          -1.0142568929351619
        ]
      }
    },
    {
      "type": "Feature",
      "properties": {
        "norad_id": 35951,
        "name": "DMSP 5D-3 F18 (USA 210)",
        "group": "weather",
        "lat": 21.556403038928384,
        "lon": -44.14048500732261,
        "alt_km": 837.2813110968145,
        "timestamp": "2025-12-08T23:34:03.612242+00:00",
        "meta_object_name": "DMSP 5D-3 F18 (USA 210)",
        "meta_object_id": "2009-057A",
        "meta_epoch": "2025-12-08T13:16:51.148992",
        "meta_mean_motion": 14.14765582,
        "meta_eccentricity": 0.00121093,
        "meta_inclination": 98.883,
        "meta_ra_of_asc_node": 318.9752,
        "meta_arg_of_pericenter": 73.6566,
        "meta_mean_anomaly": 286.5938,
        "meta_ephemeris_type": 0,
        "meta_classification_type": "U",
        "meta_norad_cat_id": 35951,
        "meta_element_set_no": 999,
        "meta_rev_at_epoch": 83263,
        "meta_bstar": 0.00027150597,
        "meta_mean_motion_dot": 4.79e-06,
        "meta_mean_motion_ddot": 0,
        "tle_line1": "1 35951U 09057A   25342.55336978  .00000479  00000+0  27151-3 0  9994",
        "tle_line2": "2 35951  98.8830 318.9752 0012109  73.6566 286.5938 14.14765582832638"
      },
      "geometry": {
        "type": "Point",
        "coordinates": [
          -44.14048500732261,
          21.556403038928384
        ]
      }
    },
    {
      "type": "Feature",
      "properties": {
        "norad_id": 36411,
        "name": "EWS-G2 (GOES 15)",
        "group": "weather",
        "lat": 0.5977087450139149,
        "lon": 132.87335649229618,
        "alt_km": 35801.752213170344,
        "timestamp": "2025-12-08T23:34:03.612256+00:00",
        "meta_object_name": "EWS-G2 (GOES 15)",
        "meta_object_id": "2010-008A",
        "meta_epoch": "2025-12-08T13:53:50.559360",
        "meta_mean_motion": 1.00268694,
        "meta_eccentricity": 0.00059619,
        "meta_inclination": 0.8034,
        "meta_ra_of_asc_node": 86.0568,
        "meta_arg_of_pericenter": 173.0225,
        "meta_mean_anomaly": 88.4081,
        "meta_ephemeris_type": 0,
        "meta_classification_type": "U",
        "meta_norad_cat_id": 36411,
        "meta_element_set_no": 999,
        "meta_rev_at_epoch": 5772,
        "meta_bstar": 0,
        "meta_mean_motion_dot": 4e-07,
        "meta_mean_motion_ddot": 0,
        "tle_line1": "1 36411U 10008A   25342.57905740  .00000040  00000+0  00000+0 0  9999",
        "tle_line2": "2 36411   0.8034  86.0568 0005961 173.0225  88.4081  1.00268694 57722"
      },
      "geometry": {
        "type": "Point",
        "coordinates": [
          132.87335649229618,
          0.5977087450139149
        ]
      }
    }
  ]
}